CCSDS_OMM_VERS = 2.0
CREATION_DATE  = 
ORIGINATOR     = 

OBJECT_NAME    = UNKNOWN
OBJECT_ID      = 
CENTER_NAME    = EARTH
REF_FRAME      = TEME
TIME_SYSTEM    = UTC
MEAN_ELEMENT_THEORY = SGP/SGP4

EPOCH          = 2026-01-07T04:55:01.689888
MEAN_MOTION    = 14.23046412
ECCENTRICITY   = .002935
INCLINATION    = 82.9497
RA_OF_ASC_NODE = 171.3804
ARG_OF_PERICENTER = 94.9149
MEAN_ANOMALY   = 78.4119

EPHEMERIS_TYPE = 0
CLASSIFICATION_TYPE = U
NORAD_CAT_ID   = 82798
ELEMENT_SET_NO = 999
REV_AT_EPOCH   = 31599
BSTAR          = .1099E-2
MEAN_MOTION_DOT = .2504E-4
MEAN_MOTION_DDOT = 0

CCSDS_OMM_VERS = 2.0
CREATION_DATE  = 
ORIGINATOR     = 

OBJECT_NAME    = UNKNOWN
OBJECT_ID      = 
CENTER_NAME    = EARTH
REF_FRAME      = TEME
TIME_SYSTEM    = UTC
MEAN_ELEMENT_THEORY = SGP/SGP4

EPOCH          = 2026-01-21T10:03:18.722880
MEAN_MOTION    = 14.35283193
ECCENTRICITY   = .0049733
INCLINATION    = 99.7881
RA_OF_ASC_NODE = 192.4401
ARG_OF_PERICENTER = 261.1907
MEAN_ANOMALY   = 98.3641

EPHEMERIS_TYPE = 0
CLASSIFICATION_TYPE = U
NORAD_CAT_ID   = 82820
ELEMENT_SET_NO = 999
REV_AT_EPOCH   = 63132
BSTAR          = .30863E-2
MEAN_MOTION_DOT = .8921E-4
MEAN_MOTION_DDOT = 0

CCSDS_OMM_VERS = 2.0
CREATION_DATE  = 
ORIGINATOR     = 

OBJECT_NAME    = UNKNOWN
OBJECT_ID      = 
CENTER_NAME    = EARTH
REF_FRAME      = TEME
TIME_SYSTEM    = UTC
MEAN_ELEMENT_THEORY = SGP/SGP4

EPOCH          = 2026-01-22T06:27:59.889888
MEAN_MOTION    = 13.87971079
ECCENTRICITY   = .0129401
INCLINATION    = 82.6878
RA_OF_ASC_NODE = 32.8065
ARG_OF_PERICENTER = 165.4385
MEAN_ANOMALY   = 195.0564

EPHEMERIS_TYPE = 0
CLASSIFICATION_TYPE = U
NORAD_CAT_ID   = 82854
ELEMENT_SET_NO = 999
REV_AT_EPOCH   = 61342
BSTAR          = .17658E-2
MEAN_MOTION_DOT = .2261E-4
MEAN_MOTION_DDOT = 0

CCSDS_OMM_VERS = 2.0
CREATION_DATE  = 
ORIGINATOR     = 

OBJECT_NAME    = UNKNOWN
OBJECT_ID      = 
CENTER_NAME    = EARTH
REF_FRAME      = TEME
TIME_SYSTEM    = UTC
MEAN_ELEMENT_THEORY = SGP/SGP4

EPOCH          = 2026-01-21T12:05:44.061216
MEAN_MOTION    = 14.24761439
ECCENTRICITY   = .003726
INCLINATION    = 99.9966
RA_OF_ASC_NODE = 286.1230
ARG_OF_PERICENTER = 172.5375
MEAN_ANOMALY   = 187.6362

EPHEMERIS_TYPE = 0
CLASSIFICATION_TYPE = U
NORAD_CAT_ID   = 82873
ELEMENT_SET_NO = 999
REV_AT_EPOCH   = 62689
BSTAR          = .31123E-2
MEAN_MOTION_DOT = .7256E-4
MEAN_MOTION_DDOT = 0

CCSDS_OMM_VERS = 2.0
CREATION_DATE  = 
ORIGINATOR     = 

OBJECT_NAME    = UNKNOWN
OBJECT_ID      = 
CENTER_NAME    = EARTH
REF_FRAME      = TEME
TIME_SYSTEM    = UTC
MEAN_ELEMENT_THEORY = SGP/SGP4

EPOCH          = 2026-01-20T05:17:22.945344
MEAN_MOTION    = 14.15217346
ECCENTRICITY   = .0377931
INCLINATION    = 98.6802
RA_OF_ASC_NODE = 7.6307
ARG_OF_PERICENTER = 172.4877
MEAN_ANOMALY   = 188.2187

EPHEMERIS_TYPE = 0
CLASSIFICATION_TYPE = U
NORAD_CAT_ID   = 82875
ELEMENT_SET_NO = 999
REV_AT_EPOCH   = 54991
BSTAR          = .148E-3
MEAN_MOTION_DOT = .523E-5
MEAN_MOTION_DDOT = 0

CCSDS_OMM_VERS = 2.0
CREATION_DATE  = 
ORIGINATOR     = 

OBJECT_NAME    = UNKNOWN
OBJECT_ID      = 
CENTER_NAME    = EARTH
REF_FRAME      = TEME
TIME_SYSTEM    = UTC
MEAN_ELEMENT_THEORY = SGP/SGP4

EPOCH          = 2026-01-20T14:18:05.033376
MEAN_MOTION    = 14.32317570
ECCENTRICITY   = .0024629
INCLINATION    = 98.9598
RA_OF_ASC_NODE = 141.9515
ARG_OF_PERICENTER = 282.5379
MEAN_ANOMALY   = 77.3048

EPHEMERIS_TYPE = 0
CLASSIFICATION_TYPE = U
NORAD_CAT_ID   = 82893
ELEMENT_SET_NO = 999
REV_AT_EPOCH   = 42953
BSTAR          = .87704E-2
MEAN_MOTION_DOT = .23795E-3
MEAN_MOTION_DDOT = 0

CCSDS_OMM_VERS = 2.0
CREATION_DATE  = 
ORIGINATOR     = 

OBJECT_NAME    = UNKNOWN
OBJECT_ID      = 
CENTER_NAME    = EARTH
REF_FRAME      = TEME
TIME_SYSTEM    = UTC
MEAN_ELEMENT_THEORY = SGP/SGP4

EPOCH          = 2026-01-16T21:42:59.603328
MEAN_MOTION    = 13.27946494
ECCENTRICITY   = .0776086
INCLINATION    = 65.8388
RA_OF_ASC_NODE = 93.2313
ARG_OF_PERICENTER = 252.9120
MEAN_ANOMALY   = 98.5557

EPHEMERIS_TYPE = 0
CLASSIFICATION_TYPE = U
NORAD_CAT_ID   = 82912
ELEMENT_SET_NO = 999
REV_AT_EPOCH   = 58399
BSTAR          = .13824E-2
MEAN_MOTION_DOT = .3359E-4
MEAN_MOTION_DDOT = 0

CCSDS_OMM_VERS = 2.0
CREATION_DATE  = 
ORIGINATOR     = 

OBJECT_NAME    = UNKNOWN
OBJECT_ID      = 
CENTER_NAME    = EARTH
REF_FRAME      = TEME
TIME_SYSTEM    = UTC
MEAN_ELEMENT_THEORY = SGP/SGP4

EPOCH          = 2026-01-14T04:24:57.138624
MEAN_MOTION    = 13.24178156
ECCENTRICITY   = .0415741
INCLINATION    = 99.8544
RA_OF_ASC_NODE = 172.0207
ARG_OF_PERICENTER = 285.1784
MEAN_ANOMALY   = 70.3726

EPHEMERIS_TYPE = 0
CLASSIFICATION_TYPE = U
NORAD_CAT_ID   = 82961
ELEMENT_SET_NO = 999
REV_AT_EPOCH   = 56000
BSTAR          = .15746E-1
MEAN_MOTION_DOT = .10659E-3
MEAN_MOTION_DDOT = 0

CCSDS_OMM_VERS = 2.0
CREATION_DATE  = 
ORIGINATOR     = 

OBJECT_NAME    = UNKNOWN
OBJECT_ID      = 
CENTER_NAME    = EARTH
REF_FRAME      = TEME
TIME_SYSTEM    = UTC
MEAN_ELEMENT_THEORY = SGP/SGP4

EPOCH          = 2026-01-18T00:36:27.338688
MEAN_MOTION    = 13.60089172
ECCENTRICITY   = .0002263
INCLINATION    = 100.1135
RA_OF_ASC_NODE = 103.7302
ARG_OF_PERICENTER = 184.2810
MEAN_ANOMALY   = 175.8309

EPHEMERIS_TYPE = 0
CLASSIFICATION_TYPE = U
NORAD_CAT_ID   = 82965
ELEMENT_SET_NO = 999
REV_AT_EPOCH   = 52938
BSTAR          = .1304E-2
MEAN_MOTION_DOT = .927E-5
MEAN_MOTION_DDOT = 0

CCSDS_OMM_VERS = 2.0
CREATION_DATE  = 
ORIGINATOR     = 

OBJECT_NAME    = UNKNOWN
OBJECT_ID      = 
CENTER_NAME    = EARTH
REF_FRAME      = TEME
TIME_SYSTEM    = UTC
MEAN_ELEMENT_THEORY = SGP/SGP4

EPOCH          = 2026-01-21T05:00:59.707296
MEAN_MOTION    = 0.99113858
ECCENTRICITY   = .0122808
INCLINATION    = 6.0860
RA_OF_ASC_NODE = 290.2659
ARG_OF_PERICENTER = 252.6994
MEAN_ANOMALY   = 311.3251

EPHEMERIS_TYPE = 0
CLASSIFICATION_TYPE = U
NORAD_CAT_ID   = 83903
ELEMENT_SET_NO = 999
REV_AT_EPOCH   = 4405
BSTAR          = 0
MEAN_MOTION_DOT = -.219E-5
MEAN_MOTION_DDOT = 0

CCSDS_OMM_VERS = 2.0
CREATION_DATE  = 
ORIGINATOR     = 

OBJECT_NAME    = UNKNOWN
OBJECT_ID      = 
CENTER_NAME    = EARTH
REF_FRAME      = TEME
TIME_SYSTEM    = UTC
MEAN_ELEMENT_THEORY = SGP/SGP4

EPOCH          = 2026-01-20T22:35:28.226688
MEAN_MOTION    = 1.02662271
ECCENTRICITY   = .0227795
INCLINATION    = 5.6946
RA_OF_ASC_NODE = 297.2375
ARG_OF_PERICENTER = 274.9577
MEAN_ANOMALY   = 275.5789

EPHEMERIS_TYPE = 0
CLASSIFICATION_TYPE = U
NORAD_CAT_ID   = 83934
ELEMENT_SET_NO = 999
REV_AT_EPOCH   = 4568
BSTAR          = 0
MEAN_MOTION_DOT = -.2E-6
MEAN_MOTION_DDOT = 0

CCSDS_OMM_VERS = 2.0
CREATION_DATE  = 
ORIGINATOR     = 

OBJECT_NAME    = UNKNOWN
OBJECT_ID      = 
CENTER_NAME    = EARTH
REF_FRAME      = TEME
TIME_SYSTEM    = UTC
MEAN_ELEMENT_THEORY = SGP/SGP4

EPOCH          = 2026-01-14T01:37:02.461440
MEAN_MOTION    = 5.32545134
ECCENTRICITY   = .5070007
INCLINATION    = 18.2977
RA_OF_ASC_NODE = 182.4337
ARG_OF_PERICENTER = 212.4015
MEAN_ANOMALY   = 102.7031

EPHEMERIS_TYPE = 0
CLASSIFICATION_TYPE = U
NORAD_CAT_ID   = 83970
ELEMENT_SET_NO = 999
REV_AT_EPOCH   = 19793
BSTAR          = .49157E-2
MEAN_MOTION_DOT = .479E-4
MEAN_MOTION_DDOT = 0

