UNKNOWN                 
1 82798U          26007.20488067  .00002504  00000+0  10990-2 0  9995
2 82798  82.9497 171.3804 0029350  94.9149  78.4119 14.23046412315998
UNKNOWN                 
1 82820U          26021.41896670  .00008921  00000+0  30863-2 0  9993
2 82820  99.7881 192.4401 0049733 261.1907  98.3641 14.35283193631322
UNKNOWN                 
1 82854U          26022.26944317  .00002261  00000+0  17658-2 0  9994
2 82854  82.6878  32.8065 0129401 165.4385 195.0564 13.87971079613429
UNKNOWN                 
1 82873U          26021.50398219  .00007256  00000+0  31123-2 0  9997
2 82873  99.9966 286.1230 0037260 172.5375 187.6362 14.24761439626893
UNKNOWN                 
1 82875U          26020.22040446  .00000523  00000+0  14800-3 0  9997
2 82875  98.6802   7.6307 0377931 172.4877 188.2187 14.15217346549911
UNKNOWN                 
1 82893U          26020.59589159  .00023795  00000+0  87704-2 0  9994
2 82893  98.9598 141.9515 0024629 282.5379  77.3048 14.32317570429530
UNKNOWN                 
1 82912U          26016.90485652  .00003359  00000+0  13824-2 0  9995
2 82912  65.8388  93.2313 0776086 252.9120  98.5557 13.27946494583990
UNKNOWN                 
1 82961U          26014.18399466  .00010659  00000+0  15746-1 0  9999
2 82961  99.8544 172.0207 0415741 285.1784  70.3726 13.24178156560007
UNKNOWN                 
1 82965U          26018.02531642  .00000927  00000+0  13040-2 0  9997
2 82965 100.1135 103.7302 0002263 184.2810 175.8309 13.60089172529383
UNKNOWN                 
1 83903U          26021.20902439 -.00000219  00000+0  00000+0 0  9994
2 83903   6.0860 290.2659 0122808 252.6994 311.3251  0.99113858 44059
UNKNOWN                 
1 83934U          26020.94129892 -.00000020  00000+0  00000+0 0  9992
2 83934   5.6946 297.2375 0227795 274.9577 275.5789  1.02662271 45680
UNKNOWN                 
1 83970U          26014.06738960  .00004790  00000+0  49157-2 0  9996
2 83970  18.2977 182.4337 5070007 212.4015 102.7031  5.32545134197930
